{
  "type": "FeatureCollection",
  "features": [
    {
      "type": "Feature",
      "properties": {
        "norad_id": 58647,
        "name": "TIANMU-1 13",
        "group": "weather",
        "lat": 10.226243341652486,
        "lon": -157.816446186908,
        "alt_km": 489.42841656109977,
        "timestamp": "2025-12-27T11:23:19.521055+00:00",
        "meta_object_name": "TIANMU-1 13",
        "meta_object_id": "2023-205C",
        "meta_epoch": "2025-12-27T04:20:48.240096",
        "meta_mean_motion": 15.24707408,
        "meta_eccentricity": 0.000685,
        "meta_inclination": 97.3617,
        "meta_ra_of_asc_node": 20.5587,
        "meta_arg_of_pericenter": 204.8514,
        "meta_mean_anomaly": 155.2395,
        "meta_ephemeris_type": 0,
        "meta_classification_type": "U",
        "meta_norad_cat_id": 58647,
        "meta_element_set_no": 999,
        "meta_rev_at_epoch": 11127,
        "meta_bstar": 0.00029862,
        "meta_mean_motion_dot": 7.321e-05,
        "meta_mean_motion_ddot": 0,
        "tle_line1": "1 58647U 23205C   25361.18111389  .00007321  00000+0  29862-3 0  9993",
        "tle_line2": "2 58647  97.3617  20.5587 0006850 204.8514 155.2395 15.24707408111275"
      },
      "geometry": {
        "type": "Point",
        "coordinates": [
          -157.816446186908,
          10.226243341652486
        ]
      }
    },
    {
      "type": "Feature",
      "properties": {
        "norad_id": 58648,
        "name": "TIANMU-1 14",
        "group": "weather",
        "lat": -77.48461430239085,
        "lon": 164.59813067830663,
        "alt_km": 495.72629947958285,
        "timestamp": "2025-12-27T11:23:19.521066+00:00",
        "meta_object_name": "TIANMU-1 14",
        "meta_object_id": "2023-205D",
        "meta_epoch": "2025-12-27T05:31:38.230176",
        "meta_mean_motion": 15.24690411,
        "meta_eccentricity": 0.0007529,
        "meta_inclination": 97.3549,
        "meta_ra_of_asc_node": 19.9424,
        "meta_arg_of_pericenter": 210.7573,
        "meta_mean_anomaly": 149.3225,
        "meta_ephemeris_type": 0,
        "meta_classification_type": "U",
        "meta_norad_cat_id": 58648,
        "meta_element_set_no": 999,
        "meta_rev_at_epoch": 11128,
        "meta_bstar": 0.00029987,
        "meta_mean_motion_dot": 7.349e-05,
        "meta_mean_motion_ddot": 0,
        "tle_line1": "1 58648U 23205D   25361.23030359  .00007349  00000+0  29987-3 0  9995",
        "tle_line2": "2 58648  97.3549  19.9424 0007529 210.7573 149.3225 15.24690411111289"
      },
      "geometry": {
        "type": "Point",
        "coordinates": [
          164.59813067830663,
          -77.48461430239085
        ]
      }
    },
    {
      "type": "Feature",
      "properties": {
        "norad_id": 58660,
        "name": "TIANMU-1 19",
        "group": "weather",
        "lat": -25.863376492081947,
        "lon": 116.11595405506043,
        "alt_km": 489.8528490790304,
        "timestamp": "2025-12-27T11:23:19.521076+00:00",
        "meta_object_name": "TIANMU-1 19",
        "meta_object_id": "2023-208A",
        "meta_epoch": "2025-12-27T05:12:59.618880",
        "meta_mean_motion": 15.2811918,
        "meta_eccentricity": 0.0004944,
        "meta_inclination": 97.4383,
        "meta_ra_of_asc_node": 112.2279,
        "meta_arg_of_pericenter": 192.6984,
        "meta_mean_anomaly": 167.4132,
        "meta_ephemeris_type": 0,
        "meta_classification_type": "U",
        "meta_norad_cat_id": 58660,
        "meta_element_set_no": 999,
        "meta_rev_at_epoch": 11103,
        "meta_bstar": 0.00041821,
        "meta_mean_motion_dot": 0.000114,
        "meta_mean_motion_ddot": 0,
        "tle_line1": "1 58660U 23208A   25361.21735670  .00011400  00000+0  41821-3 0  9992",
        "tle_line2": "2 58660  97.4383 112.2279 0004944 192.6984 167.4132 15.28119180111031"
      },
      "geometry": {
        "type": "Point",
        "coordinates": [
          116.11595405506043,
          -25.863376492081947
        ]
      }
    },
    {
      "type": "Feature",
      "properties": {
        "norad_id": 58661,
        "name": "TIANMU-1 20",
        "group": "weather",
        "lat": 67.57089428846606,
        "lon": -48.6163565916205,
        "alt_km": 471.6909686580975,
        "timestamp": "2025-12-27T11:23:19.521088+00:00",
        "meta_object_name": "TIANMU-1 20",
        "meta_object_id": "2023-208B",
        "meta_epoch": "2025-12-27T04:37:20.810208",
        "meta_mean_motion": 15.29309501,
        "meta_eccentricity": 0.0006953,
        "meta_inclination": 97.4322,
        "meta_ra_of_asc_node": 112.6651,
        "meta_arg_of_pericenter": 206.8921,
        "meta_mean_anomaly": 153.196,
        "meta_ephemeris_type": 0,
        "meta_classification_type": "U",
        "meta_norad_cat_id": 58661,
        "meta_element_set_no": 999,
        "meta_rev_at_epoch": 11110,
        "meta_bstar": 0.00042988,
        "meta_mean_motion_dot": 0.00012161,
        "meta_mean_motion_ddot": 0,
        "tle_line1": "1 58661U 23208B   25361.19260197  .00012161  00000+0  42988-3 0  9997",
        "tle_line2": "2 58661  97.4322 112.6651 0006953 206.8921 153.1960 15.29309501111102"
      },
      "geometry": {
        "type": "Point",
        "coordinates": [
          -48.6163565916205,
          67.57089428846606
        ]
      }
    },
    {
      "type": "Feature",
      "properties": {
        "norad_id": 58662,
        "name": "TIANMU-1 21",
        "group": "weather",
        "lat": -68.98883587226081,
        "lon": -84.96111478156038,
        "alt_km": 474.62401254525867,
        "timestamp": "2025-12-27T11:23:19.521098+00:00",
        "meta_object_name": "TIANMU-1 21",
        "meta_object_id": "2023-208C",
        "meta_epoch": "2025-12-27T04:01:43.525632",
        "meta_mean_motion": 15.31866746,
        "meta_eccentricity": 0.0006576,
        "meta_inclination": 97.437,
        "meta_ra_of_asc_node": 114.6137,
        "meta_arg_of_pericenter": 201.1968,
        "meta_mean_anomaly": 158.9002,
        "meta_ephemeris_type": 0,
        "meta_classification_type": "U",
        "meta_norad_cat_id": 58662,
        "meta_element_set_no": 999,
        "meta_rev_at_epoch": 11120,
        "meta_bstar": 0.00042614,
        "meta_mean_motion_dot": 0.00013049,
        "meta_mean_motion_ddot": 0,
        "tle_line1": "1 58662U 23208C   25361.16786488  .00013049  00000+0  42614-3 0  9993",
        "tle_line2": "2 58662  97.4370 114.6137 0006576 201.1968 158.9002 15.31866746111200"
      },
      "geometry": {
        "type": "Point",
        "coordinates": [
          -84.96111478156038,
          -68.98883587226081
        ]
      }
    },
    {
      "type": "Feature",
      "properties": {
        "norad_id": 58663,
        "name": "TIANMU-1 22",
        "group": "weather",
        "lat": -38.01214364854354,
        "lon": 118.39750181519551,
        "alt_km": 489.3695487123132,
        "timestamp": "2025-12-27T11:23:19.521108+00:00",
        "meta_object_name": "TIANMU-1 22",
        "meta_object_id": "2023-208D",
        "meta_epoch": "2025-12-27T05:16:09.074208",
        "meta_mean_motion": 15.2785416,
        "meta_eccentricity": 0.0003114,
        "meta_inclination": 97.4377,
        "meta_ra_of_asc_node": 112.2824,
        "meta_arg_of_pericenter": 214.4758,
        "meta_mean_anomaly": 145.628,
        "meta_ephemeris_type": 0,
        "meta_classification_type": "U",
        "meta_norad_cat_id": 58663,
        "meta_element_set_no": 999,
        "meta_rev_at_epoch": 11104,
        "meta_bstar": 0.00039064,
        "meta_mean_motion_dot": 0.00010554,
        "meta_mean_motion_ddot": 0,
        "tle_line1": "1 58663U 23208D   25361.21954947  .00010554  00000+0  39064-3 0  9990",
        "tle_line2": "2 58663  97.4377 112.2824 0003114 214.4758 145.6280 15.27854160111049"
      },
      "geometry": {
        "type": "Point",
        "coordinates": [
          118.39750181519551,
          -38.01214364854354
        ]
      }
    },
    {
      "type": "Feature",
      "properties": {
        "norad_id": 58700,
        "name": "TIANMU-1 15",
        "group": "weather",
        "lat": -76.98400767696342,
        "lon": -142.56333213788093,
        "alt_km": 496.7646340541596,
        "timestamp": "2025-12-27T11:23:19.521120+00:00",
        "meta_object_name": "TIANMU-1 15",
        "meta_object_id": "2024-004A",
        "meta_epoch": "2025-12-27T03:51:37.031328",
        "meta_mean_motion": 15.24602968,
        "meta_eccentricity": 0.0006142,
        "meta_inclination": 97.4632,
        "meta_ra_of_asc_node": 182.5763,
        "meta_arg_of_pericenter": 228.9013,
        "meta_mean_anomaly": 131.1695,
        "meta_ephemeris_type": 0,
        "meta_classification_type": "U",
        "meta_norad_cat_id": 58700,
        "meta_element_set_no": 999,
        "meta_rev_at_epoch": 10954,
        "meta_bstar": 0.00033683,
        "meta_mean_motion_dot": 8.24e-05,
        "meta_mean_motion_ddot": 0,
        "tle_line1": "1 58700U 24004A   25361.16084527  .00008240  00000+0  33683-3 0  9999",
        "tle_line2": "2 58700  97.4632 182.5763 0006142 228.9013 131.1695 15.24602968109541"
      },
      "geometry": {
        "type": "Point",
        "coordinates": [
          -142.56333213788093,
          -76.98400767696342
        ]
      }
    }
  ]
}